start=new Date('2023-04-27T00:00:00.000Z').valueOf();
sats=[{"OBJECT_ID":"2021-024AL","MEAN_MOTION":"15.06438644","MEAN_ANOMALY":"284.8342","EPOCH":"2023-04-26T21:27:03.424896","REF_FRAME":"TEME","MEAN_MOTION_DOT":"0.00028416","COUNTRY_CODE":"US","PERIOD":"95.590","CENTER_NAME":"EARTH","CLASSIFICATION_TYPE":"U","SEMIMAJOR_AXIS":"6925.230","ARG_OF_PERICENTER":"75.2728","DECAY_DATE":null,"MEAN_ELEMENT_THEORY":"SGP4","ELEMENT_SET_NO":"999","TIME_SYSTEM":"UTC","LAUNCH_DATE":"2021-03-24","PERIAPSIS":"546.593","SITE":"AFETR","NORAD_CAT_ID":"48011","REV_AT_EPOCH":"11691","OBJECT_NAME":"STARLINK-2272","TLE_LINE1":"1 48011U 21024AL  23116.89378964  .00028416  00000-0  19169-2 0  9999","FILE":"3894261","OBJECT_TYPE":"PAYLOAD","EPHEMERIS_TYPE":"0","ECCENTRICITY":"0.00007250","APOAPSIS":"547.597","BSTAR":"0.00191690000000","RCS_SIZE":"LARGE","GP_ID":"230798710","MEAN_MOTION_DDOT":"0.0000000000000","TLE_LINE2":"2 48011  53.0561 340.3576 0000725  75.2728 284.8342 15.06438644116919","INCLINATION":"53.0561","RA_OF_ASC_NODE":"340.3576"},{"ELEMENT_SET_NO":"999","MEAN_ELEMENT_THEORY":"SGP4","DECAY_DATE":null,"ARG_OF_PERICENTER":"79.4028","SEMIMAJOR_AXIS":"6925.393","CLASSIFICATION_TYPE":"U","SITE":"AFETR","PERIAPSIS":"546.583","LAUNCH_DATE":"2021-03-24","TIME_SYSTEM":"UTC","EPOCH":"2023-04-26T20:24:00.166752","MEAN_ANOMALY":"280.7070","MEAN_MOTION":"15.06385494","OBJECT_ID":"2021-024AN","CENTER_NAME":"EARTH","PERIOD":"95.593","COUNTRY_CODE":"US","MEAN_MOTION_DOT":"0.00015603","REF_FRAME":"TEME","MEAN_MOTION_DDOT":"0.0000000000000","GP_ID":"230797458","RCS_SIZE":"LARGE","BSTAR":"0.00106450000000","RA_OF_ASC_NODE":"325.5531","INCLINATION":"53.0548","TLE_LINE2":"2 48013  53.0548 325.5531 0000974  79.4028 280.7070 15.06385494117061","REV_AT_EPOCH":"11706","NORAD_CAT_ID":"48013","APOAPSIS":"547.933","ECCENTRICITY":"0.00009740","EPHEMERIS_TYPE":"0","FILE":"3894261","OBJECT_TYPE":"PAYLOAD","TLE_LINE1":"1 48013U 21024AN  23116.85000193  .00015603  00000-0  10645-2 0  9997","OBJECT_NAME":"STARLINK-2243"},{"TLE_LINE2":"2 48014  53.0554 291.8267 0001340 170.4517 189.6498 15.06369504117563","INCLINATION":"53.0554","RA_OF_ASC_NODE":"291.8267","RCS_SIZE":"LARGE","GP_ID":"230797708","MEAN_MOTION_DDOT":"0.0000000000000","BSTAR":"-0.00008910200000","OBJECT_TYPE":"PAYLOAD","FILE":"3894261","EPHEMERIS_TYPE":"0","ECCENTRICITY":"0.00013400","APOAPSIS":"548.235","OBJECT_NAME":"STARLINK-2283","TLE_LINE1":"1 48014U 21024AP  23116.60079286 -.00001607  00000-0 -89102-4 0  9997","NORAD_CAT_ID":"48014","REV_AT_EPOCH":"11756","LAUNCH_DATE":"2021-03-24","PERIAPSIS":"546.379","SITE":"AFETR","TIME_SYSTEM":"UTC","MEAN_ELEMENT_THEORY":"SGP4","ELEMENT_SET_NO":"999","CLASSIFICATION_TYPE":"U","SEMIMAJOR_AXIS":"6925.442","DECAY_DATE":null,"ARG_OF_PERICENTER":"170.4517","PERIOD":"95.594","COUNTRY_CODE":"US","CENTER_NAME":"EARTH","REF_FRAME":"TEME","MEAN_MOTION_DOT":"-0.00001607","MEAN_MOTION":"15.06369504","MEAN_ANOMALY":"189.6498","EPOCH":"2023-04-26T14:25:08.503104","OBJECT_ID":"2021-024AP"},{"OBJECT_NAME":"STARLINK-2284","TLE_LINE1":"1 48016U 21024AR  23116.69615900  .00011200  00000-0  76976-3 0  9999","OBJECT_TYPE":"PAYLOAD","FILE":"3894261","APOAPSIS":"547.401","ECCENTRICITY":"0.00002360","EPHEMERIS_TYPE":"0","REV_AT_EPOCH":"11778","NORAD_CAT_ID":"48016","INCLINATION":"53.0519","TLE_LINE2":"2 48016  53.0519 276.4441 0000236 354.1426   5.9560 15.06392161117781","RA_OF_ASC_NODE":"276.4441","BSTAR":"0.00076976000000","GP_ID":"230798959","RCS_SIZE":"LARGE","MEAN_MOTION_DDOT":"0.0000000000000","MEAN_MOTION_DOT":"0.00011200","REF_FRAME":"TEME","PERIOD":"95.593","COUNTRY_CODE":"US","CENTER_NAME":"EARTH","OBJECT_ID":"2021-024AR","MEAN_ANOMALY":"5.9560","MEAN_MOTION":"15.06392161","EPOCH":"2023-04-26T16:42:28.137600","TIME_SYSTEM":"UTC","LAUNCH_DATE":"2021-03-24","SITE":"AFETR","PERIAPSIS":"547.074","CLASSIFICATION_TYPE":"U","DECAY_DATE":null,"ARG_OF_PERICENTER":"354.1426","SEMIMAJOR_AXIS":"6925.373","MEAN_ELEMENT_THEORY":"SGP4","ELEMENT_SET_NO":"999"},{"PERIOD":"95.591","COUNTRY_CODE":"US","CENTER_NAME":"EARTH","MEAN_MOTION_DOT":"0.00028784","REF_FRAME":"TEME","MEAN_ANOMALY":"251.1304","MEAN_MOTION":"15.06422195","EPOCH":"2023-04-26T16:27:56.069568","OBJECT_ID":"2021-024AT","LAUNCH_DATE":"2021-03-24","SITE":"AFETR","PERIAPSIS":"546.118","TIME_SYSTEM":"UTC","MEAN_ELEMENT_THEORY":"SGP4","ELEMENT_SET_NO":"999","CLASSIFICATION_TYPE":"U","DECAY_DATE":null,"ARG_OF_PERICENTER":"108.9846","SEMIMAJOR_AXIS":"6925.281","FILE":"3894261","OBJECT_TYPE":"PAYLOAD","ECCENTRICITY":"0.00014840","APOAPSIS":"548.173","EPHEMERIS_TYPE":"0","OBJECT_NAME":"STARLINK-2282","TLE_LINE1":"1 48018U 21024AT  23116.68606562  .00028784  00000-0  19422-2 0  9991","REV_AT_EPOCH":"11681","NORAD_CAT_ID":"48018","INCLINATION":"53.0537","TLE_LINE2":"2 48018  53.0537 346.4901 0001484 108.9846 251.1304 15.06422195116814","RA_OF_ASC_NODE":"346.4901","GP_ID":"230799210","RCS_SIZE":"LARGE","MEAN_MOTION_DDOT":"0.0000000000000","BSTAR":"0.00194220000000"},{"GP_ID":"230797958","RCS_SIZE":"LARGE","MEAN_MOTION_DDOT":"0.0000000000000","BSTAR":"0.00143250000000","INCLINATION":"53.0539","TLE_LINE2":"2 48019  53.0539 335.3297 0001254 143.9747 216.1327 15.06415197116928","RA_OF_ASC_NODE":"335.3297","REV_AT_EPOCH":"11692","NORAD_CAT_ID":"48019","FILE":"3894261","OBJECT_TYPE":"PAYLOAD","ECCENTRICITY":"0.00012540","APOAPSIS":"548.035","EPHEMERIS_TYPE":"0","OBJECT_NAME":"STARLINK-2285","TLE_LINE1":"1 48019U 21024AU  23116.90072079  .00021129  00000-0  14325-2 0  9990","MEAN_ELEMENT_THEORY":"SGP4","ELEMENT_SET_NO":"999","CLASSIFICATION_TYPE":"U","DECAY_DATE":null,"ARG_OF_PERICENTER":"143.9747","SEMIMAJOR_AXIS":"6925.302","LAUNCH_DATE":"2021-03-24","SITE":"AFETR","PERIAPSIS":"546.299","TIME_SYSTEM":"UTC","MEAN_ANOMALY":"216.1327","MEAN_MOTION":"15.06415197","EPOCH":"2023-04-26T21:37:02.276256","OBJECT_ID":"2021-024AU","PERIOD":"95.591","COUNTRY_CODE":"US","CENTER_NAME":"EARTH","MEAN_MOTION_DOT":"0.00021129","REF_FRAME":"TEME"},{"NORAD_CAT_ID":"48020","REV_AT_EPOCH":"11752","OBJECT_NAME":"STARLINK-2294","TLE_LINE1":"1 48020U 21024AV  23116.74455872  .00005466  00000-0  38556-3 0  9999","FILE":"3894261","OBJECT_TYPE":"PAYLOAD","EPHEMERIS_TYPE":"0","ECCENTRICITY":"0.00011290","APOAPSIS":"547.996","BSTAR":"0.00038556000000","RCS_SIZE":"LARGE","GP_ID":"230798208","MEAN_MOTION_DDOT":"0.0000000000000","TLE_LINE2":"2 48020  53.0528 291.4201 0001129  83.9219 276.1899 15.06399723117526","INCLINATION":"53.0528","RA_OF_ASC_NODE":"291.4201","OBJECT_ID":"2021-024AV","MEAN_MOTION":"15.06399723","MEAN_ANOMALY":"276.1899","EPOCH":"2023-04-26T17:52:09.873408","REF_FRAME":"TEME","MEAN_MOTION_DOT":"0.00005466","PERIOD":"95.592","COUNTRY_CODE":"US","CENTER_NAME":"EARTH","CLASSIFICATION_TYPE":"U","SEMIMAJOR_AXIS":"6925.349","DECAY_DATE":null,"ARG_OF_PERICENTER":"83.9219","MEAN_ELEMENT_THEORY":"SGP4","ELEMENT_SET_NO":"999","TIME_SYSTEM":"UTC","LAUNCH_DATE":"2021-03-24","PERIAPSIS":"546.433","SITE":"AFETR"},{"NORAD_CAT_ID":"48021","REV_AT_EPOCH":"11749","OBJECT_NAME":"STARLINK-2301","TLE_LINE1":"1 48021U 21024AW  23116.88964925  .00022135  00000-0  14991-2 0  9997","OBJECT_TYPE":"PAYLOAD","FILE":"3894261","EPHEMERIS_TYPE":"0","ECCENTRICITY":"0.00009110","APOAPSIS":"547.757","BSTAR":"0.00149910000000","RCS_SIZE":"LARGE","GP_ID":"230798460","MEAN_MOTION_DDOT":"0.0000000000000","TLE_LINE2":"2 48021  53.0533 295.3724 0000911  84.7708 275.3385 15.06428675117492","INCLINATION":"53.0533","RA_OF_ASC_NODE":"295.3724","OBJECT_ID":"2021-024AW","MEAN_MOTION":"15.06428675","MEAN_ANOMALY":"275.3385","EPOCH":"2023-04-26T21:21:05.695200","REF_FRAME":"TEME","MEAN_MOTION_DOT":"0.00022135","COUNTRY_CODE":"US","PERIOD":"95.590","CENTER_NAME":"EARTH","CLASSIFICATION_TYPE":"U","SEMIMAJOR_AXIS":"6925.261","ARG_OF_PERICENTER":"84.7708","DECAY_DATE":null,"MEAN_ELEMENT_THEORY":"SGP4","ELEMENT_SET_NO":"999","TIME_SYSTEM":"UTC","LAUNCH_DATE":"2021-03-24","PERIAPSIS":"546.495","SITE":"AFETR"},{"TIME_SYSTEM":"UTC","SITE":"AFETR","PERIAPSIS":"546.040","LAUNCH_DATE":"2021-03-24","ARG_OF_PERICENTER":"110.8295","DECAY_DATE":null,"SEMIMAJOR_AXIS":"6925.226","CLASSIFICATION_TYPE":"U","ELEMENT_SET_NO":"999","MEAN_ELEMENT_THEORY":"SGP4","MEAN_MOTION_DOT":"0.00035220","REF_FRAME":"TEME","CENTER_NAME":"EARTH","PERIOD":"95.590","COUNTRY_CODE":"US","OBJECT_ID":"2021-024AX","EPOCH":"2023-04-26T22:01:00.604704","MEAN_ANOMALY":"249.2856","MEAN_MOTION":"15.06439949","RA_OF_ASC_NODE":"355.5334","INCLINATION":"53.0556","TLE_LINE2":"2 48022  53.0556 355.5334 0001518 110.8295 249.2856 15.06439949116702","BSTAR":"0.00236900000000","MEAN_MOTION_DDOT":"0.0000000000000","GP_ID":"230798711","RCS_SIZE":"LARGE","TLE_LINE1":"1 48022U 21024AX  23116.91736811  .00035220  00000-0  23690-2 0  9998","OBJECT_NAME":"STARLINK-2298","APOAPSIS":"548.142","ECCENTRICITY":"0.00015180","EPHEMERIS_TYPE":"0","FILE":"3894261","OBJECT_TYPE":"PAYLOAD","REV_AT_EPOCH":"11670","NORAD_CAT_ID":"48022"},{"SITE":"AFETR","PERIAPSIS":"546.029","LAUNCH_DATE":"2021-03-24","TIME_SYSTEM":"UTC","ELEMENT_SET_NO":"999","MEAN_ELEMENT_THEORY":"SGP4","ARG_OF_PERICENTER":"108.5831","DECAY_DATE":null,"SEMIMAJOR_AXIS":"6925.236","CLASSIFICATION_TYPE":"U","CENTER_NAME":"EARTH","PERIOD":"95.590","COUNTRY_CODE":"US","MEAN_MOTION_DOT":"0.00027085","REF_FRAME":"TEME","EPOCH":"2023-04-26T20:09:30.772800","MEAN_ANOMALY":"251.5326","MEAN_MOTION":"15.06436702","OBJECT_ID":"2021-024AY","RA_OF_ASC_NODE":"355.5973","INCLINATION":"53.0542","TLE_LINE2":"2 48023  53.0542 355.5973 0001548 108.5831 251.5326 15.06436702116690","MEAN_MOTION_DDOT":"0.0000000000000","GP_ID":"230797459","RCS_SIZE":"LARGE","BSTAR":"0.00182840000000","ECCENTRICITY":"0.00015480","APOAPSIS":"548.173","EPHEMERIS_TYPE":"0","FILE":"3894261","OBJECT_TYPE":"PAYLOAD","TLE_LINE1":"1 48023U 21024AY  23116.83993950  .00027085  00000-0  18284-2 0  9992","OBJECT_NAME":"STARLINK-2292","REV_AT_EPOCH":"11669","NORAD_CAT_ID":"48023"}];
